[
    {
        "Altitude(m)": 605470.7640514917,
        "Argument of Periapsis(deg)": 0.0,
        "Eccentricity": 0.0,
        "Inclination(deg)": 60.0,
        "Latitude(deg)": 27.988121900047446,
        "Longitude(deg)": 2.262885375493326,
        "Mean Anomaly(deg)": -212.7273,
        "RAAN(deg)": 300.0,
        "Satellite Name": "Test1 1329",
        "Satellite Number": 1329,
        "Semi-Major Axis(m)": 6980739.136638005,
        "Time(s)": 0
    },
    {
        "Altitude(m)": 605395.8024743587,
        "Argument of Periapsis(deg)": 0.00010418945913296404,
        "Eccentricity": 0.0,
        "Inclination(deg)": 60.0,
        "Latitude(deg)": 27.473813312844744,
        "Longitude(deg)": 2.6160742170329816,
        "Mean Anomaly(deg)": -212.10719385453817,
        "RAAN(deg)": 299.99957995086027,
        "Satellite Name": "Test1 1329",
        "Satellite Number": 1329,
        "Semi-Major Axis(m)": 6980739.136638005,
        "Time(s)": 10
    }
]